{"type": "FeatureCollection", "features": [ {"type": "Feature", "properties": {"norad_id": 31381, "name": "FENGYUN 1C DEB", "group": "fengyun-1c-debris", "lat": -21.177151283929884, "lon": -98.55960806822036, "alt_km": 890.3839930252298, "timestamp": "2025-12-27T12:55:14.787729+00:00", "meta": {"OBJECT_NAME": "FENGYUN 1C DEB", "OBJECT_ID": "1999-025BSM", "EPOCH": "2025-12-25T11:31:13.278720", "MEAN_MOTION": 14.37075498, "ECCENTRICITY": 0.0197793, "INCLINATION": 98.4914, "RA_OF_ASC_NODE": 82.7259, "ARG_OF_PERICENTER": 353.9152, "MEAN_ANOMALY": 5.9634, "EPHEMERIS_TYPE": 0, "CLASSIFICATION_TYPE": "U", "NORAD_CAT_ID": 31381, "ELEMENT_SET_NO": 999, "REV_AT_EPOCH": 97583, "BSTAR": 0.00034323, "MEAN_MOTION_DOT": 1.225e-05, "MEAN_MOTION_DDOT": 0}, "tle": {"line1": "1 31381U 99025BSM 25359.48001480  .00001225  00000+0  34323-3 0  9997", "line2": "2 31381  98.4914  82.7259 0197793 353.9152   5.9634 14.37075498975837"}}, "geometry": {"type": "Point", "coordinates": [-98.55960806822036, -21.177151283929884]}}, {"type": "Feature", "properties": {"norad_id": 31383, "name": "FENGYUN 1C DEB", "group": "fengyun-1c-debris", "lat": 9.480672393518851, "lon": 61.951390754245885, "alt_km": 879.7472921097096, "timestamp": "2025-12-27T12:55:14.787740+00:00", "meta": {"OBJECT_NAME": "FENGYUN 1C DEB", "OBJECT_ID": "1999-025BSP", "EPOCH": "2025-12-17T10:22:17.465376", "MEAN_MOTION": 14.05711597, "ECCENTRICITY": 0.01077198, "INCLINATION": 99.0662, "RA_OF_ASC_NODE": 53.3693, "ARG_OF_PERICENTER": 304.1704, "MEAN_ANOMALY": 68.9908, "EPHEMERIS_TYPE": 0, "CLASSIFICATION_TYPE": "U", "NORAD_CAT_ID": 31383, "ELEMENT_SET_NO": 999, "REV_AT_EPOCH": 95435, "BSTAR": 0.00049128566, "MEAN_MOTION_DOT": 7.98e-06, "MEAN_MOTION_DDOT": 0}, "tle": {"line1": "1 31383U 99025BSP 25351.43214659  .00000798  00000+0  49129-3 0  9994", "line2": "2 31383  99.0662  53.3693 0107719 304.1704  68.9908 14.05711597954351"}}, "geometry": {"type": "Point", "coordinates": [61.951390754245885, 9.480672393518851]}}, {"type": "Feature", "properties": {"norad_id": 31384, "name": "FENGYUN 1C DEB", "group": "fengyun-1c-debris", "lat": 66.44790164904599, "lon": 166.18195482631035, "alt_km": 1037.529883897022, "timestamp": "2025-12-27T12:55:14.787750+00:00", "meta": {"OBJECT_NAME": "FENGYUN 1C DEB", "OBJECT_ID": "1999-025BSQ", "EPOCH": "2025-12-26T20:56:47.404032", "MEAN_MOTION": 13.863172, "ECCENTRICITY": 0.0439828, "INCLINATION": 98.4563, "RA_OF_ASC_NODE": 325.6231, "ARG_OF_PERICENTER": 2.9158, "MEAN_ANOMALY": 24.3516, "EPHEMERIS_TYPE": 0, "CLASSIFICATION_TYPE": "U", "NORAD_CAT_ID": 31384, "ELEMENT_SET_NO": 999, "REV_AT_EPOCH": 93220, "BSTAR": 0.0037539, "MEAN_MOTION_DOT": 9.306e-05, "MEAN_MOTION_DDOT": 0}, "tle": {"line1": "1 31384U 99025BSQ 25360.87277088  .00009306  00000+0  37539-2 0  9993", "line2": "2 31384  98.4563 325.6231 0439828   2.9158  24.3516 13.86317200932205"}}, "geometry": {"type": "Point", "coordinates": [166.18195482631035, 66.44790164904599]}}, {"type": "Feature", "properties": {"norad_id": 31385, "name": "FENGYUN 1C DEB", "group": "fengyun-1c-debris", "lat": 78.7182512284792, "lon": -35.32638281630982, "alt_km": 728.5676863306117, "timestamp": "2025-12-27T12:55:14.787760+00:00", "meta": {"OBJECT_NAME": "FENGYUN 1C DEB", "OBJECT_ID": "1999-025BSR", "EPOCH": "2025-12-24T00:27:59.984928", "MEAN_MOTION": 14.44009849, "ECCENTRICITY": 0.0134107, "INCLINATION": 98.9532, "RA_OF_ASC_NODE": 88.7608, "ARG_OF_PERICENTER": 22.1757, "MEAN_ANOMALY": 150.7267, "EPHEMERIS_TYPE": 0, "CLASSIFICATION_TYPE": "U", "NORAD_CAT_ID": 31385, "ELEMENT_SET_NO": 999, "REV_AT_EPOCH": 98777, "BSTAR": 0.0001309881, "MEAN_MOTION_DOT": 4.45e-06, "MEAN_MOTION_DDOT": 0}, "tle": {"line1": "1 31385U 99025BSR 25358.01944427  .00000445  00000+0  13099-3 0  9996", "line2": "2 31385  98.9532  88.7608 0134107  22.1757 150.7267 14.44009849987774"}}, "geometry": {"type": "Point", "coordinates": [-35.32638281630982, 78.7182512284792]}}, {"type": "Feature", "properties": {"norad_id": 31386, "name": "FENGYUN 1C DEB", "group": "fengyun-1c-debris", "lat": -51.45682465251342, "lon": 25.729891523119285, "alt_km": 883.5584065286312, "timestamp": "2025-12-27T12:55:14.787770+00:00", "meta": {"OBJECT_NAME": "FENGYUN 1C DEB", "OBJECT_ID": "1999-025BSS", "EPOCH": "2025-12-26T23:18:45.936864", "MEAN_MOTION": 13.86098372, "ECCENTRICITY": 0.0198208, "INCLINATION": 98.4389, "RA_OF_ASC_NODE": 14.479, "ARG_OF_PERICENTER": 245.2647, "MEAN_ANOMALY": 112.7769, "EPHEMERIS_TYPE": 0, "CLASSIFICATION_TYPE": "U", "NORAD_CAT_ID": 31386, "ELEMENT_SET_NO": 999, "REV_AT_EPOCH": 94059, "BSTAR": 0.0021077, "MEAN_MOTION_DOT": 2.795e-05, "MEAN_MOTION_DDOT": 0}, "tle": {"line1": "1 31386U 99025BSS 25360.97136501  .00002795  00000+0  21077-2 0  9995", "line2": "2 31386  98.4389  14.4790 0198208 245.2647 112.7769 13.86098372940594"}}, "geometry": {"type": "Point", "coordinates": [25.729891523119285, -51.45682465251342]}}, {"type": "Feature", "properties": {"norad_id": 31387, "name": "FENGYUN 1C DEB", "group": "fengyun-1c-debris", "lat": -31.304495910460496, "lon": -113.98004219504013, "alt_km": 1018.5013116429682, "timestamp": "2025-12-27T12:55:14.787780+00:00", "meta": {"OBJECT_NAME": "FENGYUN 1C DEB", "OBJECT_ID": "1999-025BST", "EPOCH": "2025-12-26T21:47:15.377568", "MEAN_MOTION": 14.13583169, "ECCENTRICITY": 0.0242279, "INCLINATION": 99.1675, "RA_OF_ASC_NODE": 239.7376, "ARG_OF_PERICENTER": 131.4276, "MEAN_ANOMALY": 230.7991, "EPHEMERIS_TYPE": 0, "CLASSIFICATION_TYPE": "U", "NORAD_CAT_ID": 31387, "ELEMENT_SET_NO": 999, "REV_AT_EPOCH": 96497, "BSTAR": 0.00020424, "MEAN_MOTION_DOT": 4.62e-06, "MEAN_MOTION_DDOT": 0}, "tle": {"line1": "1 31387U 99025BST 25360.90781687  .00000462  00000+0  20424-3 0  9995", "line2": "2 31387  99.1675 239.7376 0242279 131.4276 230.7991 14.13583169964975"}}, "geometry": {"type": "Point", "coordinates": [-113.98004219504013, -31.304495910460496]}}, {"type": "Feature", "properties": {"norad_id": 31388, "name": "FENGYUN 1C DEB", "group": "fengyun-1c-debris", "lat": -42.26765661007608, "lon": 161.02418151254844, "alt_km": 859.3428259584707, "timestamp": "2025-12-27T12:55:14.787791+00:00", "meta": {"OBJECT_NAME": "FENGYUN 1C DEB", "OBJECT_ID": "1999-025BSU", "EPOCH": "2025-12-27T05:21:10.057248", "MEAN_MOTION": 14.07433365, "ECCENTRICITY": 0.0047228, "INCLINATION": 98.8061, "RA_OF_ASC_NODE": 348.8164, "ARG_OF_PERICENTER": 160.1458, "MEAN_ANOMALY": 265.3443, "EPHEMERIS_TYPE": 0, "CLASSIFICATION_TYPE": "U", "NORAD_CAT_ID": 31388, "ELEMENT_SET_NO": 999, "REV_AT_EPOCH": 96645, "BSTAR": 0.00010490505, "MEAN_MOTION_DOT": 1.36e-06, "MEAN_MOTION_DDOT": 0}, "tle": {"line1": "1 31388U 99025BSU 25361.22303307  .00000136  00000+0  10491-3 0  9992", "line2": "2 31388  98.8061 348.8164 0047228 160.1458 265.3443 14.07433365966452"}}, "geometry": {"type": "Point", "coordinates": [161.02418151254844, -42.26765661007608]}}, {"type": "Feature", "properties": {"norad_id": 31389, "name": "FENGYUN 1C DEB", "group": "fengyun-1c-debris", "lat": 41.66646445793741, "lon": -3.556887253187418, "alt_km": 665.3583443734351, "timestamp": "2025-12-27T12:55:14.787801+00:00", "meta": {"OBJECT_NAME": "FENGYUN 1C DEB", "OBJECT_ID": "1999-025BSV", "EPOCH": "2025-12-26T10:08:41.198784", "MEAN_MOTION": 14.61620113, "ECCENTRICITY": 0.0027136, "INCLINATION": 99.0411, "RA_OF_ASC_NODE": 167.0783, "ARG_OF_PERICENTER": 147.8825, "MEAN_ANOMALY": 242.6083, "EPHEMERIS_TYPE": 0, "CLASSIFICATION_TYPE": "U", "NORAD_CAT_ID": 31389, "ELEMENT_SET_NO": 999, "REV_AT_EPOCH": 96697, "BSTAR": 0.0046927, "MEAN_MOTION_DOT": 0.00023477, "MEAN_MOTION_DDOT": 0}, "tle": {"line1": "1 31389U 99025BSV 25360.42269906  .00023477  00000+0  46927-2 0  9995", "line2": "2 31389  99.0411 167.0783 0027136 147.8825 242.6083 14.61620113966973"}}, "geometry": {"type": "Point", "coordinates": [-3.556887253187418, 41.66646445793741]}}, {"type": "Feature", "properties": {"norad_id": 31410, "name": "FENGYUN 1C DEB", "group": "fengyun-1c-debris", "lat": 71.05176128787662, "lon": 136.73963970418214, "alt_km": 812.760336121446, "timestamp": "2025-12-27T12:55:14.787812+00:00", "meta": {"OBJECT_NAME": "FENGYUN 1C DEB", "OBJECT_ID": "1999-025BSW", "EPOCH": "2025-12-26T16:42:06.729408", "MEAN_MOTION": 14.44856675, "ECCENTRICITY": 0.01104281, "INCLINATION": 98.837, "RA_OF_ASC_NODE": 162.809, "ARG_OF_PERICENTER": 244.7739, "MEAN_ANOMALY": 129.1682, "EPHEMERIS_TYPE": 0, "CLASSIFICATION_TYPE": "U", "NORAD_CAT_ID": 31410, "ELEMENT_SET_NO": 999, "REV_AT_EPOCH": 97953, "BSTAR": 0.0010626866, "MEAN_MOTION_DOT": 3.933e-05, "MEAN_MOTION_DDOT": 0}, "tle": {"line1": "1 31410U 99025BSW 25360.69591122  .00003933  00000+0  10627-2 0  9990", "line2": "2 31410  98.8370 162.8090 0110428 244.7739 129.1682 14.44856675979536"}}, "geometry": {"type": "Point", "coordinates": [136.73963970418214, 71.05176128787662]}}, {"type": "Feature", "properties": {"norad_id": 31411, "name": "FENGYUN 1C DEB", "group": "fengyun-1c-debris", "lat": 15.254486932685122, "lon": 60.32550620658305, "alt_km": 868.7147340598922, "timestamp": "2025-12-27T12:55:14.787822+00:00", "meta": {"OBJECT_NAME": "FENGYUN 1C DEB", "OBJECT_ID": "1999-025BSX", "EPOCH": "2025-12-21T10:37:47.232192", "MEAN_MOTION": 14.28010304, "ECCENTRICITY": 0.01009094, "INCLINATION": 98.668, "RA_OF_ASC_NODE": 56.6601, "ARG_OF_PERICENTER": 229.1813, "MEAN_ANOMALY": 147.9658, "EPHEMERIS_TYPE": 0, "CLASSIFICATION_TYPE": "U", "NORAD_CAT_ID": 31411, "ELEMENT_SET_NO": 999, "REV_AT_EPOCH": 94604, "BSTAR": 0.00039943349, "MEAN_MOTION_DOT": 1.002e-05, "MEAN_MOTION_DDOT": 0}, "tle": {"line1": "1 31411U 99025BSX 25355.44290778  .00001002  00000+0  39943-3 0  9999", "line2": "2 31411  98.6680  56.6601 0100909 229.1813 147.9658 14.28010304946044"}}, "geometry": {"type": "Point", "coordinates": [60.32550620658305, 15.254486932685122]}}]}